IRIDIUM 116             
1 43072U 17083C   23233.80374210  .00000204  00000+0  65722-4 0  9994
2 43072  86.3972  32.6292 0001951  90.2570 269.8849 14.34218586296483
IRIDIUM 130             
1 43073U 17083D   23233.84179052  .00000379  00000+0  12835-3 0  9995
2 43073  86.3977  32.7883 0002142  94.1902 265.9538 14.34218136296439
IRIDIUM 151             
1 43074U 17083E   23233.46758258  .00000374  00000+0  12652-3 0  9997
2 43074  86.3973  32.8038 0001918  95.0213 265.1202 14.34215332296406
IRIDIUM 134             
1 43075U 17083F   23233.15679731  .00000387  00000+0  13113-3 0  9999
2 43075  86.3970  32.9275 0002204  91.2955 268.8493 14.34215824296327
IRIDIUM 137             
1 43076U 17083G   23233.93693617  .00000153  00000+0  47649-4 0  9998
2 43076  86.3975  32.6740 0001936  87.0812 273.0605 14.34214241296508
IRIDIUM 141             
1 43077U 17083H   23233.51197950  .00000316  00000+0  10562-3 0  9996
2 43077  86.3968  32.7404 0002042  97.2840 262.8588 14.34221973296441
IRIDIUM 153             
1 43078U 17083J   23233.81300458  .00000044  00000+0  86200-5 0  9991
2 43078  86.4016   1.0789 0002377 103.9942 256.1519 14.34215610297599
IRIDIUM 131             
1 43079U 17083K   23233.15044980  .00000236  00000+0  77294-4 0  9999
2 43079  86.3982  33.0095 0002388  99.1954 260.9512 14.34212661296326
