<?xml version="1.0" encoding="UTF-8"?>
<ndm xmlns:xsi="http://www.w3.org/2001/XMLSchema-instance" xsi:noNamespaceSchemaLocation="https://sanaregistry.org/r/ndmxml_unqualified/ndmxml-2.0.0-master-2.0.xsd">
<omm id="CCSDS_OMM_VERS" version="2.0">
<header><CREATION_DATE/><ORIGINATOR/></header><body><segment><metadata><OBJECT_NAME>IRIDIUM 116</OBJECT_NAME><OBJECT_ID>2017-083C</OBJECT_ID><CENTER_NAME>EARTH</CENTER_NAME><REF_FRAME>TEME</REF_FRAME><TIME_SYSTEM>UTC</TIME_SYSTEM><MEAN_ELEMENT_THEORY>SGP4</MEAN_ELEMENT_THEORY></metadata><data><meanElements><EPOCH>2023-08-21T19:17:23.317440</EPOCH><MEAN_MOTION>14.34218586</MEAN_MOTION><ECCENTRICITY>.0001951</ECCENTRICITY><INCLINATION>86.3972</INCLINATION><RA_OF_ASC_NODE>32.6292</RA_OF_ASC_NODE><ARG_OF_PERICENTER>90.2570</ARG_OF_PERICENTER><MEAN_ANOMALY>269.8849</MEAN_ANOMALY></meanElements><tleParameters><EPHEMERIS_TYPE>0</EPHEMERIS_TYPE><CLASSIFICATION_TYPE>U</CLASSIFICATION_TYPE><NORAD_CAT_ID>43072</NORAD_CAT_ID><ELEMENT_SET_NO>999</ELEMENT_SET_NO><REV_AT_EPOCH>29648</REV_AT_EPOCH><BSTAR>.65722E-4</BSTAR><MEAN_MOTION_DOT>.204E-5</MEAN_MOTION_DOT><MEAN_MOTION_DDOT>0</MEAN_MOTION_DDOT></tleParameters></data></segment></body></omm>
<omm id="CCSDS_OMM_VERS" version="2.0">
<header><CREATION_DATE/><ORIGINATOR/></header><body><segment><metadata><OBJECT_NAME>IRIDIUM 130</OBJECT_NAME><OBJECT_ID>2017-083D</OBJECT_ID><CENTER_NAME>EARTH</CENTER_NAME><REF_FRAME>TEME</REF_FRAME><TIME_SYSTEM>UTC</TIME_SYSTEM><MEAN_ELEMENT_THEORY>SGP4</MEAN_ELEMENT_THEORY></metadata><data><meanElements><EPOCH>2023-08-21T20:12:10.700928</EPOCH><MEAN_MOTION>14.34218136</MEAN_MOTION><ECCENTRICITY>.0002142</ECCENTRICITY><INCLINATION>86.3977</INCLINATION><RA_OF_ASC_NODE>32.7883</RA_OF_ASC_NODE><ARG_OF_PERICENTER>94.1902</ARG_OF_PERICENTER><MEAN_ANOMALY>265.9538</MEAN_ANOMALY></meanElements><tleParameters><EPHEMERIS_TYPE>0</EPHEMERIS_TYPE><CLASSIFICATION_TYPE>U</CLASSIFICATION_TYPE><NORAD_CAT_ID>43073</NORAD_CAT_ID><ELEMENT_SET_NO>999</ELEMENT_SET_NO><REV_AT_EPOCH>29643</REV_AT_EPOCH><BSTAR>.12835E-3</BSTAR><MEAN_MOTION_DOT>.379E-5</MEAN_MOTION_DOT><MEAN_MOTION_DDOT>0</MEAN_MOTION_DDOT></tleParameters></data></segment></body></omm>
<omm id="CCSDS_OMM_VERS" version="2.0">
<header><CREATION_DATE/><ORIGINATOR/></header><body><segment><metadata><OBJECT_NAME>IRIDIUM 151</OBJECT_NAME><OBJECT_ID>2017-083E</OBJECT_ID><CENTER_NAME>EARTH</CENTER_NAME><REF_FRAME>TEME</REF_FRAME><TIME_SYSTEM>UTC</TIME_SYSTEM><MEAN_ELEMENT_THEORY>SGP4</MEAN_ELEMENT_THEORY></metadata><data><meanElements><EPOCH>2023-08-21T11:13:19.134912</EPOCH><MEAN_MOTION>14.34215332</MEAN_MOTION><ECCENTRICITY>.0001918</ECCENTRICITY><INCLINATION>86.3973</INCLINATION><RA_OF_ASC_NODE>32.8038</RA_OF_ASC_NODE><ARG_OF_PERICENTER>95.0213</ARG_OF_PERICENTER><MEAN_ANOMALY>265.1202</MEAN_ANOMALY></meanElements><tleParameters><EPHEMERIS_TYPE>0</EPHEMERIS_TYPE><CLASSIFICATION_TYPE>U</CLASSIFICATION_TYPE><NORAD_CAT_ID>43074</NORAD_CAT_ID><ELEMENT_SET_NO>999</ELEMENT_SET_NO><REV_AT_EPOCH>29640</REV_AT_EPOCH><BSTAR>.12652E-3</BSTAR><MEAN_MOTION_DOT>.374E-5</MEAN_MOTION_DOT><MEAN_MOTION_DDOT>0</MEAN_MOTION_DDOT></tleParameters></data></segment></body></omm>
<omm id="CCSDS_OMM_VERS" version="2.0">
<header><CREATION_DATE/><ORIGINATOR/></header><body><segment><metadata><OBJECT_NAME>IRIDIUM 134</OBJECT_NAME><OBJECT_ID>2017-083F</OBJECT_ID><CENTER_NAME>EARTH</CENTER_NAME><REF_FRAME>TEME</REF_FRAME><TIME_SYSTEM>UTC</TIME_SYSTEM><MEAN_ELEMENT_THEORY>SGP4</MEAN_ELEMENT_THEORY></metadata><data><meanElements><EPOCH>2023-08-21T03:45:47.287584</EPOCH><MEAN_MOTION>14.34215824</MEAN_MOTION><ECCENTRICITY>.0002204</ECCENTRICITY><INCLINATION>86.3970</INCLINATION><RA_OF_ASC_NODE>32.9275</RA_OF_ASC_NODE><ARG_OF_PERICENTER>91.2955</ARG_OF_PERICENTER><MEAN_ANOMALY>268.8493</MEAN_ANOMALY></meanElements><tleParameters><EPHEMERIS_TYPE>0</EPHEMERIS_TYPE><CLASSIFICATION_TYPE>U</CLASSIFICATION_TYPE><NORAD_CAT_ID>43075</NORAD_CAT_ID><ELEMENT_SET_NO>999</ELEMENT_SET_NO><REV_AT_EPOCH>29632</REV_AT_EPOCH><BSTAR>.13113E-3</BSTAR><MEAN_MOTION_DOT>.387E-5</MEAN_MOTION_DOT><MEAN_MOTION_DDOT>0</MEAN_MOTION_DDOT></tleParameters></data></segment></body></omm>
<omm id="CCSDS_OMM_VERS" version="2.0">
<header><CREATION_DATE/><ORIGINATOR/></header><body><segment><metadata><OBJECT_NAME>IRIDIUM 137</OBJECT_NAME><OBJECT_ID>2017-083G</OBJECT_ID><CENTER_NAME>EARTH</CENTER_NAME><REF_FRAME>TEME</REF_FRAME><TIME_SYSTEM>UTC</TIME_SYSTEM><MEAN_ELEMENT_THEORY>SGP4</MEAN_ELEMENT_THEORY></metadata><data><meanElements><EPOCH>2023-08-21T22:29:11.285088</EPOCH><MEAN_MOTION>14.34214241</MEAN_MOTION><ECCENTRICITY>.0001936</ECCENTRICITY><INCLINATION>86.3975</INCLINATION><RA_OF_ASC_NODE>32.6740</RA_OF_ASC_NODE><ARG_OF_PERICENTER>87.0812</ARG_OF_PERICENTER><MEAN_ANOMALY>273.0605</MEAN_ANOMALY></meanElements><tleParameters><EPHEMERIS_TYPE>0</EPHEMERIS_TYPE><CLASSIFICATION_TYPE>U</CLASSIFICATION_TYPE><NORAD_CAT_ID>43076</NORAD_CAT_ID><ELEMENT_SET_NO>999</ELEMENT_SET_NO><REV_AT_EPOCH>29650</REV_AT_EPOCH><BSTAR>.47649E-4</BSTAR><MEAN_MOTION_DOT>.153E-5</MEAN_MOTION_DOT><MEAN_MOTION_DDOT>0</MEAN_MOTION_DDOT></tleParameters></data></segment></body></omm>
<omm id="CCSDS_OMM_VERS" version="2.0">
<header><CREATION_DATE/><ORIGINATOR/></header><body><segment><metadata><OBJECT_NAME>IRIDIUM 141</OBJECT_NAME><OBJECT_ID>2017-083H</OBJECT_ID><CENTER_NAME>EARTH</CENTER_NAME><REF_FRAME>TEME</REF_FRAME><TIME_SYSTEM>UTC</TIME_SYSTEM><MEAN_ELEMENT_THEORY>SGP4</MEAN_ELEMENT_THEORY></metadata><data><meanElements><EPOCH>2023-08-21T12:17:15.028800</EPOCH><MEAN_MOTION>14.34221973</MEAN_MOTION><ECCENTRICITY>.0002042</ECCENTRICITY><INCLINATION>86.3968</INCLINATION><RA_OF_ASC_NODE>32.7404</RA_OF_ASC_NODE><ARG_OF_PERICENTER>97.2840</ARG_OF_PERICENTER><MEAN_ANOMALY>262.8588</MEAN_ANOMALY></meanElements><tleParameters><EPHEMERIS_TYPE>0</EPHEMERIS_TYPE><CLASSIFICATION_TYPE>U</CLASSIFICATION_TYPE><NORAD_CAT_ID>43077</NORAD_CAT_ID><ELEMENT_SET_NO>999</ELEMENT_SET_NO><REV_AT_EPOCH>29644</REV_AT_EPOCH><BSTAR>.10562E-3</BSTAR><MEAN_MOTION_DOT>.316E-5</MEAN_MOTION_DOT><MEAN_MOTION_DDOT>0</MEAN_MOTION_DDOT></tleParameters></data></segment></body></omm>
<omm id="CCSDS_OMM_VERS" version="2.0">
<header><CREATION_DATE/><ORIGINATOR/></header><body><segment><metadata><OBJECT_NAME>IRIDIUM 153</OBJECT_NAME><OBJECT_ID>2017-083J</OBJECT_ID><CENTER_NAME>EARTH</CENTER_NAME><REF_FRAME>TEME</REF_FRAME><TIME_SYSTEM>UTC</TIME_SYSTEM><MEAN_ELEMENT_THEORY>SGP4</MEAN_ELEMENT_THEORY></metadata><data><meanElements><EPOCH>2023-08-21T19:30:43.595712</EPOCH><MEAN_MOTION>14.34215610</MEAN_MOTION><ECCENTRICITY>.0002377</ECCENTRICITY><INCLINATION>86.4016</INCLINATION><RA_OF_ASC_NODE>1.0789</RA_OF_ASC_NODE><ARG_OF_PERICENTER>103.9942</ARG_OF_PERICENTER><MEAN_ANOMALY>256.1519</MEAN_ANOMALY></meanElements><tleParameters><EPHEMERIS_TYPE>0</EPHEMERIS_TYPE><CLASSIFICATION_TYPE>U</CLASSIFICATION_TYPE><NORAD_CAT_ID>43078</NORAD_CAT_ID><ELEMENT_SET_NO>999</ELEMENT_SET_NO><REV_AT_EPOCH>29759</REV_AT_EPOCH><BSTAR>.862E-5</BSTAR><MEAN_MOTION_DOT>.44E-6</MEAN_MOTION_DOT><MEAN_MOTION_DDOT>0</MEAN_MOTION_DDOT></tleParameters></data></segment></body></omm>
<omm id="CCSDS_OMM_VERS" version="2.0">
<header><CREATION_DATE/><ORIGINATOR/></header><body><segment><metadata><OBJECT_NAME>IRIDIUM 131</OBJECT_NAME><OBJECT_ID>2017-083K</OBJECT_ID><CENTER_NAME>EARTH</CENTER_NAME><REF_FRAME>TEME</REF_FRAME><TIME_SYSTEM>UTC</TIME_SYSTEM><MEAN_ELEMENT_THEORY>SGP4</MEAN_ELEMENT_THEORY></metadata><data><meanElements><EPOCH>2023-08-21T03:36:38.862720</EPOCH><MEAN_MOTION>14.34212661</MEAN_MOTION><ECCENTRICITY>.0002388</ECCENTRICITY><INCLINATION>86.3982</INCLINATION><RA_OF_ASC_NODE>33.0095</RA_OF_ASC_NODE><ARG_OF_PERICENTER>99.1954</ARG_OF_PERICENTER><MEAN_ANOMALY>260.9512</MEAN_ANOMALY></meanElements><tleParameters><EPHEMERIS_TYPE>0</EPHEMERIS_TYPE><CLASSIFICATION_TYPE>U</CLASSIFICATION_TYPE><NORAD_CAT_ID>43079</NORAD_CAT_ID><ELEMENT_SET_NO>999</ELEMENT_SET_NO><REV_AT_EPOCH>29632</REV_AT_EPOCH><BSTAR>.77294E-4</BSTAR><MEAN_MOTION_DOT>.236E-5</MEAN_MOTION_DOT><MEAN_MOTION_DDOT>0</MEAN_MOTION_DDOT></tleParameters></data></segment></body></omm>

</ndm>
